ORBCOMM FM115           
1 41186U 15081H   25292.92304648  .00001425  00000+0  31098-3 0  9996
2 41186  46.9975 166.2131 0001299 277.0166  83.0573 14.62759694526037
ORBCOMM FM108           
1 41187U 15081J   25291.56647004  .00001518  00000+0  36066-3 0  9995
2 41187  47.0048 244.2138 0001870 179.6796 180.4092 14.58406497524802
ORBCOMM FM117           
1 41188U 15081K   25292.90292604  .00001791  00000+0  41883-3 0  9993
2 41188  47.0005 236.6210 0002628 193.9419 166.1395 14.58414708525043
ORBCOMM FM116           
1 41189U 15081L   25292.81719902  .00001675  00000+0  39356-3 0  9992
2 41189  47.0030 326.8202 0001833 339.7918  20.2895 14.58492371523849
